{
  "type": "FeatureCollection",
  "features": [
    {
      "type": "Feature",
      "properties": {
        "norad_id": 36083,
        "name": "IRIDIUM 33 DEB",
        "group": "iridium-33-debris",
        "lat": -54.16451701215916,
        "lon": 26.48939984655918,
        "alt_km": 759.1189573309239,
        "timestamp": "2025-12-18T17:50:15.340699+00:00",
        "meta_object_name": "IRIDIUM 33 DEB",
        "meta_object_id": "1997-051VQ",
        "meta_epoch": "2025-12-16T21:09:41.480640",
        "meta_mean_motion": 14.43222397,
        "meta_eccentricity": 0.00256692,
        "meta_inclination": 86.3437,
        "meta_ra_of_asc_node": 32.3703,
        "meta_arg_of_pericenter": 208.6135,
        "meta_mean_anomaly": 151.3659,
        "meta_ephemeris_type": 0,
        "meta_classification_type": "U",
        "meta_norad_cat_id": 36083,
        "meta_element_set_no": 999,
        "meta_rev_at_epoch": 85509,
        "meta_bstar": 0.00040983827,
        "meta_mean_motion_dot": 1.403e-05,
        "meta_mean_motion_ddot": 0,
        "tle_line1": "1 36083U 97051VQ  25350.88173010  .00001403  00000+0  40984-3 0  9990",
        "tle_line2": "2 36083  86.3437  32.3703 0025669 208.6135 151.3659 14.43222397855098"
      },
      "geometry": {
        "type": "Point",
        "coordinates": [
          26.48939984655918,
          -54.16451701215916
        ]
      }
    },
    {
      "type": "Feature",
      "properties": {
        "norad_id": 36390,
        "name": "IRIDIUM 33 DEB",
        "group": "iridium-33-debris",
        "lat": 60.11208852641477,
        "lon": -56.87931424612262,
        "alt_km": 640.1409580133159,
        "timestamp": "2025-12-18T17:50:15.340709+00:00",
        "meta_object_name": "IRIDIUM 33 DEB",
        "meta_object_id": "1997-051VU",
        "meta_epoch": "2025-12-18T02:53:50.749728",
        "meta_mean_motion": 14.73679499,
        "meta_eccentricity": 0.00315796,
        "meta_inclination": 86.2911,
        "meta_ra_of_asc_node": 296.9257,
        "meta_arg_of_pericenter": 143.7695,
        "meta_mean_anomaly": 216.5671,
        "meta_ephemeris_type": 0,
        "meta_classification_type": "U",
        "meta_norad_cat_id": 36390,
        "meta_element_set_no": 999,
        "meta_rev_at_epoch": 66341,
        "meta_bstar": 0.00081895703,
        "meta_mean_motion_dot": 5.409e-05,
        "meta_mean_motion_ddot": 0,
        "tle_line1": "1 36390U 97051VU  25352.12072627  .00005409  00000+0  81896-3 0  9999",
        "tle_line2": "2 36390  86.2911 296.9257 0031579 143.7695 216.5671 14.73679499663417"
      },
      "geometry": {
        "type": "Point",
        "coordinates": [
          -56.87931424612262,
          60.11208852641477
        ]
      }
    },
    {
      "type": "Feature",
      "properties": {
        "norad_id": 36483,
        "name": "IRIDIUM 33 DEB",
        "group": "iridium-33-debris",
        "lat": 14.526667330712,
        "lon": -131.01992938267261,
        "alt_km": 735.8807233929019,
        "timestamp": "2025-12-18T17:50:15.340719+00:00",
        "meta_object_name": "IRIDIUM 33 DEB",
        "meta_object_id": "1997-051VZ",
        "meta_epoch": "2025-12-16T21:53:24.442080",
        "meta_mean_motion": 14.45825155,
        "meta_eccentricity": 0.00113618,
        "meta_inclination": 86.3797,
        "meta_ra_of_asc_node": 50.7036,
        "meta_arg_of_pericenter": 114.4564,
        "meta_mean_anomaly": 245.7824,
        "meta_ephemeris_type": 0,
        "meta_classification_type": "U",
        "meta_norad_cat_id": 36483,
        "meta_element_set_no": 999,
        "meta_rev_at_epoch": 65206,
        "meta_bstar": 0.00037285473,
        "meta_mean_motion_dot": 1.343e-05,
        "meta_mean_motion_ddot": 0,
        "tle_line1": "1 36483U 97051VZ  25350.91208845  .00001343  00000+0  37285-3 0  9996",
        "tle_line2": "2 36483  86.3797  50.7036 0011361 114.4564 245.7824 14.45825155652065"
      },
      "geometry": {
        "type": "Point",
        "coordinates": [
          -131.01992938267261,
          14.526667330712
        ]
      }
    },
    {
      "type": "Feature",
      "properties": {
        "norad_id": 36490,
        "name": "IRIDIUM 33 DEB",
        "group": "iridium-33-debris",
        "lat": -1.1345501546489642,
        "lon": 7.683861294547616,
        "alt_km": 642.9246965691291,
        "timestamp": "2025-12-18T17:50:15.340730+00:00",
        "meta_object_name": "IRIDIUM 33 DEB",
        "meta_object_id": "1997-051WG",
        "meta_epoch": "2025-12-17T07:40:51.371328",
        "meta_mean_motion": 14.76289273,
        "meta_eccentricity": 0.00054274,
        "meta_inclination": 86.3656,
        "meta_ra_of_asc_node": 8.3978,
        "meta_arg_of_pericenter": 73.7746,
        "meta_mean_anomaly": 286.407,
        "meta_ephemeris_type": 0,
        "meta_classification_type": "U",
        "meta_norad_cat_id": 36490,
        "meta_element_set_no": 999,
        "meta_rev_at_epoch": 86552,
        "meta_bstar": 0.0012339022,
        "meta_mean_motion_dot": 8.579e-05,
        "meta_mean_motion_ddot": 0,
        "tle_line1": "1 36490U 97051WG  25351.32003902  .00008579  00000+0  12339-2 0  9997",
        "tle_line2": "2 36490  86.3656   8.3978 0005427  73.7746 286.4070 14.76289273865527"
      },
      "geometry": {
        "type": "Point",
        "coordinates": [
          7.683861294547616,
          -1.1345501546489642
        ]
      }
    },
    {
      "type": "Feature",
      "properties": {
        "norad_id": 36493,
        "name": "IRIDIUM 33 DEB",
        "group": "iridium-33-debris",
        "lat": 44.51858228093013,
        "lon": 12.605105343131894,
        "alt_km": 669.0997279236044,
        "timestamp": "2025-12-18T17:50:15.340740+00:00",
        "meta_object_name": "IRIDIUM 33 DEB",
        "meta_object_id": "1997-051WK",
        "meta_epoch": "2025-12-17T18:41:22.418880",
        "meta_mean_motion": 14.65296376,
        "meta_eccentricity": 0.0009595,
        "meta_inclination": 86.357,
        "meta_ra_of_asc_node": 9.4417,
        "meta_arg_of_pericenter": 347.2295,
        "meta_mean_anomaly": 12.8673,
        "meta_ephemeris_type": 0,
        "meta_classification_type": "U",
        "meta_norad_cat_id": 36493,
        "meta_element_set_no": 999,
        "meta_rev_at_epoch": 74592,
        "meta_bstar": 0.00099210888,
        "meta_mean_motion_dot": 5.375e-05,
        "meta_mean_motion_ddot": 0,
        "tle_line1": "1 36493U 97051WK  25351.77873170  .00005375  00000+0  99211-3 0  9997",
        "tle_line2": "2 36493  86.3570   9.4417 0009595 347.2295  12.8673 14.65296376745924"
      },
      "geometry": {
        "type": "Point",
        "coordinates": [
          12.605105343131894,
          44.51858228093013
        ]
      }
    },
    {
      "type": "Feature",
      "properties": {
        "norad_id": 37548,
        "name": "IRIDIUM 33 DEB",
        "group": "iridium-33-debris",
        "lat": -68.75054139554702,
        "lon": 31.314554241831686,
        "alt_km": 738.3719275315898,
        "timestamp": "2025-12-18T17:50:15.340750+00:00",
        "meta_object_name": "IRIDIUM 33 DEB",
        "meta_object_id": "1997-051XH",
        "meta_epoch": "2025-12-15T20:39:30.861504",
        "meta_mean_motion": 14.51326297,
        "meta_eccentricity": 0.00258157,
        "meta_inclination": 86.3522,
        "meta_ra_of_asc_node": 42.0105,
        "meta_arg_of_pericenter": 178.4192,
        "meta_mean_anomaly": 181.71,
        "meta_ephemeris_type": 0,
        "meta_classification_type": "U",
        "meta_norad_cat_id": 37548,
        "meta_element_set_no": 999,
        "meta_rev_at_epoch": 65577,
        "meta_bstar": 0.00067405053,
        "meta_mean_motion_dot": 2.715e-05,
        "meta_mean_motion_ddot": 0,
        "tle_line1": "1 37548U 97051XH  25349.86077386  .00002715  00000+0  67405-3 0  9996",
        "tle_line2": "2 37548  86.3522  42.0105 0025815 178.4192 181.7100 14.51326297655778"
      },
      "geometry": {
        "type": "Point",
        "coordinates": [
          31.314554241831686,
          -68.75054139554702
        ]
      }
    },
    {
      "type": "Feature",
      "properties": {
        "norad_id": 37550,
        "name": "IRIDIUM 33 DEB",
        "group": "iridium-33-debris",
        "lat": -49.666184119274284,
        "lon": 16.936877347526874,
        "alt_km": 679.9556262123251,
        "timestamp": "2025-12-18T17:50:15.340760+00:00",
        "meta_object_name": "IRIDIUM 33 DEB",
        "meta_object_id": "1997-051XK",
        "meta_epoch": "2025-12-16T08:46:40.262592",
        "meta_mean_motion": 14.67259754,
        "meta_eccentricity": 0.0005579,
        "meta_inclination": 86.3783,
        "meta_ra_of_asc_node": 22.2681,
        "meta_arg_of_pericenter": 103.1019,
        "meta_mean_anomaly": 257.0818,
        "meta_ephemeris_type": 0,
        "meta_classification_type": "U",
        "meta_norad_cat_id": 37550,
        "meta_element_set_no": 999,
        "meta_rev_at_epoch": 86386,
        "meta_bstar": 0.00084076341,
        "meta_mean_motion_dot": 4.76e-05,
        "meta_mean_motion_ddot": 0,
        "tle_line1": "1 37550U 97051XK  25350.36574378  .00004760  00000+0  84076-3 0  9994",
        "tle_line2": "2 37550  86.3783  22.2681 0005579 103.1019 257.0818 14.67259754863861"
      },
      "geometry": {
        "type": "Point",
        "coordinates": [
          16.936877347526874,
          -49.666184119274284
        ]
      }
    }
  ]
}